COSMOS 2526             
1 43432U 18037A   24206.17410616 -.00000346  00000+0  00000+0 0  9997
2 43432   0.0288 105.8396 0000594  38.2572 349.0061  1.00269928 23020
APSTAR-6C               
1 43450U 18041A   24208.18050910 -.00000320  00000+0  00000+0 0  9994
2 43450   0.0477 296.0291 0001778 344.3893 222.9080  1.00268172 22916
BANGABANDHUSAT-1        
1 43463U 18044A   24208.03453500 -.00000364  00000+0  00000+0 0  9995
2 43463   0.0186  98.5493 0001770  56.0147 281.1865  1.00269990 22802
SES-12                  
1 43488U 18049A   24207.84227251 -.00000271  00000+0  00000+0 0  9994
2 43488   0.0131   5.9197 0000880 234.6291 101.6767  1.00271100 22484
FENGYUN 2H              
1 43491U 18050A   24208.09813851 -.00000128  00000+0  00000+0 0  9996
2 43491   1.2422  87.0882 0001086  65.7485 265.6315  1.00276997 22583
BEIDOU-2 IGSO-7         
1 43539U 18057A   24207.81123488 -.00000104  00000+0  00000+0 0  9999
2 43539  55.1523 169.0526 0079291 234.4649 301.8044  1.00299513 22202
TELSTAR 19V             
1 43562U 18059A   24205.56558490 -.00000280  00000+0  00000+0 0  9997
2 43562   0.0300 164.2809 0003230 326.9145 311.1859  1.00270275 22188
TELKOM 4 (MERAH PUTIH)  
1 43587U 18064A   24208.03357775 -.00000346  00000+0  00000+0 0  9991
2 43587   0.0139  61.2435 0001507 104.2653 258.7885  1.00271796 21938
TELSTAR 18V             
1 43611U 18069A   24208.19632830 -.00000296  00000+0  00000+0 0  9993
2 43611   0.0231  73.5719 0001972  56.1518  23.3385  1.00268388 21687
AZERSPACE 2 (IS-38)     
1 43632U 18074A   24207.87676344  .00000134  00000+0  00000+0 0  9994
2 43632   0.0148  78.8464 0001456  54.0103 171.9282  1.00272338 21503
HORIZONS-3E             
1 43633U 18074B   24207.90138278 -.00000032  00000+0  00000+0 0  9996
2 43633   0.0510 243.4455 0000457  21.3294 172.7961  1.00271963 21398
AEHF-4 (USA 288)        
1 43651U 18079A   24207.56826944 -.00000275  00000+0  00000+0 0  9996
2 43651   1.6213 335.7749 0046175   8.6143  96.4240  1.00269219 21364
BEIDOU-3 G1             
1 43683U 18085A   24208.19632830 -.00000281  00000+0  00000+0 0  9994
2 43683   2.2854 108.1413 0003774   0.8451  46.1318  1.00271501 21120
GSAT-29                 
1 43698U 18089A   24207.59253118  .00000083  00000+0  00000+0 0  9994
2 43698   0.0113  78.7442 0002391  39.6350  93.7291  1.00268441 20852
ES'HAIL 2               
1 43700U 18090A   24207.80092958  .00000142  00000+0  00000+0 0  9993
2 43700   0.0154  71.8804 0002308  96.1735  90.0781  1.00267816 20747
GEO-KOMPSAT-2A          
1 43823U 18100A   24205.73060157 -.00000345  00000+0  00000+0 0  9993
2 43823   0.0273 119.4497 0002207 347.3884 226.3711  1.00269334 20672
GSAT-11                 
1 43824U 18100B   24207.85327131 -.00000079  00000+0  00000+0 0  9991
2 43824   0.0947 267.0450 0007428 194.2769 223.8689  1.00271341 20544
GSAT-7A                 
1 43864U 18105A   24207.85882844  .00000024  00000+0  00000+0 0  9996
2 43864   0.0948 266.3843 0001842 197.9771 211.6354  1.00272602 20516
COSMOS 2533             
1 43867U 18107A   24207.85865483 -.00000041  00000+0  00000+0 0  9991
2 43867   0.0274 117.5383 0000608  91.7115 113.8901  1.00274567 20501
TJS-3                   
1 43874U 18110A   24207.83299446  .00000000  00000+0  00000+0 0  9995
2 43874   0.7515  88.6448 0002731  90.6195 237.5807  1.00272658 20484
ZHONGXING-2D            
1 43920U 19001A   24207.85760654 -.00000339  00000+0  00000+0 0  9999
2 43920   0.0314 151.1354 0002506 113.5378 118.1017  1.00270621 47143
HELLAS-SAT 4 & SGS-1    
1 44034U 19007A   24206.08673272  .00000151  00000+0  00000+0 0  9996
2 44034   0.0676 122.0825 0006202  24.2323 226.1942  1.00271144 20404
GSAT-31                 
1 44035U 19007B   24208.09195990  .00000123  00000+0  00000+0 0  9995
2 44035   0.0448 256.2283 0002022 326.4972 162.5184  1.00271704 20035
NUSANTARA SATU          
1 44048U 19009A   24207.64389792 -.00000236  00000+0  00000+0 0  9992
2 44048   0.0291 119.4709 0004844   9.5923 192.5582  1.00273281 19830
ZHONGXING-6C            
1 44067U 19012A   24207.85977328 -.00000337  00000+0  00000+0 0  9990
2 44067   0.0184 104.8867 0005286 309.9592 329.1465  1.00271784 19806
WGS 10 (USA 291)        
1 44071U 19014A   24207.85882844  .00000044  00000+0  00000+0 0  9999
2 44071   0.0168  80.3584 0001556  72.3030 160.8648  1.00271575 19699
TIANLIAN 2-01           
1 44076U 19017A   24207.81149993 -.00000108  00000+0  00000+0 0  9996
2 44076   0.2154 266.1817 0002122 193.8942 213.0361  1.00269762 19716
ARABSAT-6A              
1 44186U 19021A   24206.08499227  .00000152  00000+0  00000+0 0  9997
2 44186   0.0456 351.8934 0004717 208.0562 163.3668  1.00263375 19207
BEIDOU-3 IGSO-1         
1 44204U 19023A   24207.50967916 -.00000210  00000+0  00000+0 0  9999
2 44204  57.6991  44.8202 0022779 204.5409 356.3620  1.00289387   276
BEIDOU-2 G8             
1 44231U 19027A   24207.87827404 -.00000251  00000+0  00000+0 0  9995
2 44231   1.5691  74.0575 0001947 172.9682 157.7062  1.00267670 19144
YAMAL 601               
1 44307U 19031A   24207.86438302  .00000118  00000+0  00000+0 0  9999
2 44307   0.0212  91.3841 0002258  39.2407 173.6020  1.00272060 18986
AT&T T-16               
1 44333U 19034A   24207.91904836 -.00000117  00000+0  00000+0 0  9997
2 44333   0.0188  67.3407 0000737 256.0870 210.6635  1.00272091 18697
EUTELSAT 7C             
1 44334U 19034B   24207.79763466  .00000046  00000+0  00000+0 0  9996
2 44334   0.0727 194.0193 0003303 277.9868 126.1192  1.00269925 19184
BEIDOU-3 IGSO-2         
1 44337U 19035A   24207.77482667 -.00000117  00000+0  00000+0 0  9999
2 44337  55.1845 164.9311 0035376 204.9367 331.4780  1.00284854 18738
COSMOS 2539             
1 44457U 19048A   24208.15327095  .00000079  00000+0  00000+0 0  9998
2 44457   0.0264 115.6139 0000654  96.1347 159.7525  1.00273346 18299
EDRS-C                  
1 44475U 19049A   24208.06818569  .00000152  00000+0  00000+0 0  9992
2 44475   0.0877 254.0320 0000595 187.2557 278.7080  1.00267901 18263
INTELSAT 39 (IS-39)     
1 44476U 19049B   24207.73697990  .00000032  00000+0  00000+0 0  9996
2 44476   0.0216  71.8220 0000889 271.0161 288.3312  1.00269504 18204
AMOS-17                 
1 44479U 19050A   24207.83660469  .00000107  00000+0  00000+0 0  9996
2 44479   0.0191  63.2267 0001573  70.3190 128.6258  1.00271396 18250
AEHF-5 (USA 292)        
1 44481U 19051A   24208.09343927  .00000066  00000+0  00000+0 0  9990
2 44481   2.6353 308.1548 0041611   7.2820  77.5750  1.00363423 18320
EUTELSAT 5 WEST B       
1 44624U 19067A   24207.79519803 -.00000044  00000+0  00000+0 0  9997
2 44624   0.0726 326.8376 0003108 158.2537 100.1487  1.00270823 17513
MEV-1                   
1 44625U 19067B   24205.85886410 -.00000203  00000+0  00000+0 0  9991
2 44625   0.0342 235.6415 0000793 241.8140 106.3098  1.00271838 84635
TJS-4                   
1 44637U 19070A   24206.17896604 -.00000170  00000+0  00000+0 0  9993
2 44637   0.0812 100.5808 0001954 320.2605  29.4874  1.00268346 17581
BEIDOU-3 IGSO-3         
1 44709U 19073A   24206.63184191 -.00000181  00000+0  00000+0 0  9990
2 44709  55.9847 288.3324 0040958 188.6195 171.4111  1.00291426 17513
TIBA-1                  
1 44800U 19080A   24207.82549375  .00000154  00000+0  00000+0 0  9990
2 44800   0.0519 358.1304 0002185 139.5842 138.9747  1.00267905 17125
INMARSAT GX5            
1 44801U 19080B   24207.79841788  .00000072  00000+0  00000+0 0  9999
2 44801   0.0422  40.0154 0002214  99.6182 102.7594  1.00271163 17170
JCSAT-18 (KACIFIC 1)    
1 44868U 19091A   24206.01091110 -.00000202  00000+0  00000+0 0  9990
2 44868   0.0111 206.4130 0000770   7.6102 242.1297  1.00268671 17063
ELEKTRO-L 3             
1 44903U 19095A   24207.85327131 -.00000099  00000+0  00000+0 0  9996
2 44903   0.0643 276.3495 0000458 258.4251 152.5139  1.00270540 16760
SHIJIAN-20 (SJ-20)      
1 44910U 19097A   24207.83070308 -.00000071  00000+0  00000+0 0  9995
2 44910   3.1390  83.5242 0007716  82.8680 149.6953  1.00271388 16760
TJS-5                   
1 44978U 20002A   24208.03227241 -.00000344  00000+0  00000+0 0  9993
2 44978   0.1278 264.9001 0001539 289.0742 229.3760  1.00272305 16763
GSAT-30                 
1 45026U 20005A   24205.46181323 -.00000165  00000+0  00000+0 0  9996
2 45026   0.0512  92.9905 0003533  13.1803  84.7535  1.00270360 16559
EUTELSAT KONNECT        
1 45027U 20005B   24207.79763466  .00000047  00000+0  00000+0 0  9997
2 45027   0.0567  90.8578 0000474 193.3002 314.1776  1.00267436 17396
JCSAT-17                
1 45245U 20013A   24207.86103366 -.00000316  00000+0  00000+0 0  9993
2 45245   5.5687 350.2542 0004252 142.7619 256.9973  1.00271856 16308
GEO-KOMPSAT-2B          
1 45246U 20013B   24208.03644950 -.00000346  00000+0  00000+0 0  9996
2 45246   0.0503 248.6715 0000532 323.8808 233.0063  1.00273141 16324
BEIDOU-3 G2             
1 45344U 20017A   24208.16989234 -.00000144  00000+0  00000+0 0  9996
2 45344   2.3629  31.1064 0002239 144.8832 269.5361  1.00272351 16342
AEHF-6 (USA 298)        
1 45465U 20022B   24207.81965462 -.00000299  00000+0  00000+0 0  9995
2 45465   4.1322 298.4108 0040914   5.6415  72.7426  1.00267819 16086
BEIDOU-3 G3             
1 45807U 20040A   24208.10396900 -.00000356  00000+0  00000+0 0  9997
2 45807   0.8433  46.8648 0004105   5.9329  39.4835  1.00272975 15155
APSTAR-6D               
1 45863U 20045A   24207.88382538 -.00000320  00000+0  00000+0 0  9991
2 45863   0.0548 242.1479 0003407 328.8946 185.1973  1.00267418 14927
KOREASAT 116            
1 45920U 20048A   24207.89085539 -.00000364  00000+0  00000+0 0  9998
2 45920   0.0398 247.7211 0001234 269.4548 223.7776  1.00268511 14704
EXPRESS 103             
1 45985U 20053A   24207.84313284 -.00000282  00000+0  00000+0 0  9990
2 45985   0.0165  61.0753 0000185  64.0869 218.8919  1.00269474 14718
